SDA_1673                
1 65983U 25230K   25317.60227620  .00000430  00000+0  36665-3 0  9991
2 65983  81.3035  51.6059 0005082  92.7161 267.4578 13.85558248  3977
SDA_1674                
1 65984U 25230L   25317.60553478  .00000410  00000+0  34977-3 0  9997
2 65984  81.3026  51.6043 0004881  84.3752 275.7962 13.85399584  3975
SDA_1675                
1 65985U 25230M   25317.54712422  .00000418  00000+0  36117-3 0  9993
2 65985  81.3003  51.6838 0003177  45.7986 314.3431 13.84727829  3966
SDA_1676                
1 65986U 25230N   25317.55022034  .00000442  00000+0  38383-3 0  9992
2 65986  81.3034  51.6965 0002414  36.9849 323.1473 13.84577837  3961
SDA_1677                
1 65987U 25230P   25317.54845246  .00000443  00000+0  38334-3 0  9997
2 65987  81.3007  51.6872 0002774  41.7749 318.3619 13.84663586  3966
SDA_1678                
1 65988U 25230Q   25317.60318688  .00000430  00000+0  36648-3 0  9992
2 65988  81.3038  51.6090 0004975  90.6563 269.5165 13.85513477  3973
SDA_1679                
1 65989U 25230R   25317.60733917  .00000392  00000+0  33476-3 0  9992
2 65989  81.3037  51.6147 0005090  79.2914 280.8816 13.85311823  3978
SDA_1680                
1 65990U 25230S   25317.53761248  .00000434  00000+0  37249-3 0  9993
2 65990  81.3028  51.6787 0004864  72.5852 287.5837 13.85190744  3968
SDA_1681                
1 65991U 25230T   25317.60819440  .00000467  00000+0  40121-3 0  9999
2 65991  81.3026  51.6077 0004974  76.9361 283.2351 13.85271164  3975
SDA_1682                
1 65992U 25230U   25317.54492186  .00000425  00000+0  36682-3 0  9998
2 65992  81.3054  51.6961 0003417  51.7716 308.3748 13.84834800  3964
SDA_1683                
1 65993U 25230V   25317.54326332  .00000451  00000+0  38913-3 0  9996
2 65993  81.3044  51.6908 0003761  54.2488 305.9019 13.84916197  3965
SDA_1684                
1 65994U 25230W   25317.54624391  .00000408  00000+0  35197-3 0  9996
2 65994  81.3027  51.6899 0003510  41.3686 318.7737 13.84770723  3967
