CCSDS_OMM_VERS = 2.0
CREATION_DATE  = 
ORIGINATOR     = 

OBJECT_NAME    = SDA_1673
OBJECT_ID      = 2025-230K
CENTER_NAME    = EARTH
REF_FRAME      = TEME
TIME_SYSTEM    = UTC
MEAN_ELEMENT_THEORY = SGP/SGP4

EPOCH          = 2025-11-13T14:27:16.663680
MEAN_MOTION    = 13.85558248
ECCENTRICITY   = .0005082
INCLINATION    = 81.3035
RA_OF_ASC_NODE = 51.6059
ARG_OF_PERICENTER = 92.7161
MEAN_ANOMALY   = 267.4578

EPHEMERIS_TYPE = 0
CLASSIFICATION_TYPE = U
NORAD_CAT_ID   = 65983
ELEMENT_SET_NO = 999
REV_AT_EPOCH   = 397
BSTAR          = .36664723E-3
MEAN_MOTION_DOT = .43E-5
MEAN_MOTION_DDOT = 0

CCSDS_OMM_VERS = 2.0
CREATION_DATE  = 
ORIGINATOR     = 

OBJECT_NAME    = SDA_1674
OBJECT_ID      = 2025-230L
CENTER_NAME    = EARTH
REF_FRAME      = TEME
TIME_SYSTEM    = UTC
MEAN_ELEMENT_THEORY = SGP/SGP4

EPOCH          = 2025-11-13T14:31:58.204992
MEAN_MOTION    = 13.85399584
ECCENTRICITY   = .00048815
INCLINATION    = 81.3026
RA_OF_ASC_NODE = 51.6043
ARG_OF_PERICENTER = 84.3752
MEAN_ANOMALY   = 275.7962

EPHEMERIS_TYPE = 0
CLASSIFICATION_TYPE = U
NORAD_CAT_ID   = 65984
ELEMENT_SET_NO = 999
REV_AT_EPOCH   = 397
BSTAR          = .34976927E-3
MEAN_MOTION_DOT = .41E-5
MEAN_MOTION_DDOT = 0

CCSDS_OMM_VERS = 2.0
CREATION_DATE  = 
ORIGINATOR     = 

OBJECT_NAME    = SDA_1675
OBJECT_ID      = 2025-230M
CENTER_NAME    = EARTH
REF_FRAME      = TEME
TIME_SYSTEM    = UTC
MEAN_ELEMENT_THEORY = SGP/SGP4

EPOCH          = 2025-11-13T13:07:51.532608
MEAN_MOTION    = 13.84727829
ECCENTRICITY   = .00031777
INCLINATION    = 81.3003
RA_OF_ASC_NODE = 51.6838
ARG_OF_PERICENTER = 45.7986
MEAN_ANOMALY   = 314.3431

EPHEMERIS_TYPE = 0
CLASSIFICATION_TYPE = U
NORAD_CAT_ID   = 65985
ELEMENT_SET_NO = 999
REV_AT_EPOCH   = 396
BSTAR          = .36117317E-3
MEAN_MOTION_DOT = .418E-5
MEAN_MOTION_DDOT = 0

CCSDS_OMM_VERS = 2.0
CREATION_DATE  = 
ORIGINATOR     = 

OBJECT_NAME    = SDA_1676
OBJECT_ID      = 2025-230N
CENTER_NAME    = EARTH
REF_FRAME      = TEME
TIME_SYSTEM    = UTC
MEAN_ELEMENT_THEORY = SGP/SGP4

EPOCH          = 2025-11-13T13:12:19.037376
MEAN_MOTION    = 13.84577837
ECCENTRICITY   = .00024143
INCLINATION    = 81.3034
RA_OF_ASC_NODE = 51.6965
ARG_OF_PERICENTER = 36.9849
MEAN_ANOMALY   = 323.1473

EPHEMERIS_TYPE = 0
CLASSIFICATION_TYPE = U
NORAD_CAT_ID   = 65986
ELEMENT_SET_NO = 999
REV_AT_EPOCH   = 396
BSTAR          = .38382534E-3
MEAN_MOTION_DOT = .442E-5
MEAN_MOTION_DDOT = 0

CCSDS_OMM_VERS = 2.0
CREATION_DATE  = 
ORIGINATOR     = 

OBJECT_NAME    = SDA_1677
OBJECT_ID      = 2025-230P
CENTER_NAME    = EARTH
REF_FRAME      = TEME
TIME_SYSTEM    = UTC
MEAN_ELEMENT_THEORY = SGP/SGP4

EPOCH          = 2025-11-13T13:09:46.292544
MEAN_MOTION    = 13.84663586
ECCENTRICITY   = .0002774
INCLINATION    = 81.3007
RA_OF_ASC_NODE = 51.6872
ARG_OF_PERICENTER = 41.7749
MEAN_ANOMALY   = 318.3619

EPHEMERIS_TYPE = 0
CLASSIFICATION_TYPE = U
NORAD_CAT_ID   = 65987
ELEMENT_SET_NO = 999
REV_AT_EPOCH   = 396
BSTAR          = .38334383E-3
MEAN_MOTION_DOT = .443E-5
MEAN_MOTION_DDOT = 0

CCSDS_OMM_VERS = 2.0
CREATION_DATE  = 
ORIGINATOR     = 

OBJECT_NAME    = SDA_1678
OBJECT_ID      = 2025-230Q
CENTER_NAME    = EARTH
REF_FRAME      = TEME
TIME_SYSTEM    = UTC
MEAN_ELEMENT_THEORY = SGP/SGP4

EPOCH          = 2025-11-13T14:28:35.346432
MEAN_MOTION    = 13.85513477
ECCENTRICITY   = .00049753
INCLINATION    = 81.3038
RA_OF_ASC_NODE = 51.6090
ARG_OF_PERICENTER = 90.6563
MEAN_ANOMALY   = 269.5165

EPHEMERIS_TYPE = 0
CLASSIFICATION_TYPE = U
NORAD_CAT_ID   = 65988
ELEMENT_SET_NO = 999
REV_AT_EPOCH   = 397
BSTAR          = .36648295E-3
MEAN_MOTION_DOT = .43E-5
MEAN_MOTION_DDOT = 0

CCSDS_OMM_VERS = 2.0
CREATION_DATE  = 
ORIGINATOR     = 

OBJECT_NAME    = SDA_1679
OBJECT_ID      = 2025-230R
CENTER_NAME    = EARTH
REF_FRAME      = TEME
TIME_SYSTEM    = UTC
MEAN_ELEMENT_THEORY = SGP/SGP4

EPOCH          = 2025-11-13T14:34:34.104288
MEAN_MOTION    = 13.85311823
ECCENTRICITY   = .00050902
INCLINATION    = 81.3037
RA_OF_ASC_NODE = 51.6147
ARG_OF_PERICENTER = 79.2914
MEAN_ANOMALY   = 280.8816

EPHEMERIS_TYPE = 0
CLASSIFICATION_TYPE = U
NORAD_CAT_ID   = 65989
ELEMENT_SET_NO = 999
REV_AT_EPOCH   = 397
BSTAR          = .33476196E-3
MEAN_MOTION_DOT = .392E-5
MEAN_MOTION_DDOT = 0

CCSDS_OMM_VERS = 2.0
CREATION_DATE  = 
ORIGINATOR     = 

OBJECT_NAME    = SDA_1680
OBJECT_ID      = 2025-230S
CENTER_NAME    = EARTH
REF_FRAME      = TEME
TIME_SYSTEM    = UTC
MEAN_ELEMENT_THEORY = SGP/SGP4

EPOCH          = 2025-11-13T12:54:09.718272
MEAN_MOTION    = 13.85190744
ECCENTRICITY   = .00048648
INCLINATION    = 81.3028
RA_OF_ASC_NODE = 51.6787
ARG_OF_PERICENTER = 72.5852
MEAN_ANOMALY   = 287.5837

EPHEMERIS_TYPE = 0
CLASSIFICATION_TYPE = U
NORAD_CAT_ID   = 65990
ELEMENT_SET_NO = 999
REV_AT_EPOCH   = 396
BSTAR          = .37248963E-3
MEAN_MOTION_DOT = .434E-5
MEAN_MOTION_DDOT = 0

CCSDS_OMM_VERS = 2.0
CREATION_DATE  = 
ORIGINATOR     = 

OBJECT_NAME    = SDA_1681
OBJECT_ID      = 2025-230T
CENTER_NAME    = EARTH
REF_FRAME      = TEME
TIME_SYSTEM    = UTC
MEAN_ELEMENT_THEORY = SGP/SGP4

EPOCH          = 2025-11-13T14:35:47.996160
MEAN_MOTION    = 13.85271164
ECCENTRICITY   = .00049749
INCLINATION    = 81.3026
RA_OF_ASC_NODE = 51.6077
ARG_OF_PERICENTER = 76.9361
MEAN_ANOMALY   = 283.2351

EPHEMERIS_TYPE = 0
CLASSIFICATION_TYPE = U
NORAD_CAT_ID   = 65991
ELEMENT_SET_NO = 999
REV_AT_EPOCH   = 397
BSTAR          = .40121477E-3
MEAN_MOTION_DOT = .467E-5
MEAN_MOTION_DDOT = 0

CCSDS_OMM_VERS = 2.0
CREATION_DATE  = 
ORIGINATOR     = 

OBJECT_NAME    = SDA_1682
OBJECT_ID      = 2025-230U
CENTER_NAME    = EARTH
REF_FRAME      = TEME
TIME_SYSTEM    = UTC
MEAN_ELEMENT_THEORY = SGP/SGP4

EPOCH          = 2025-11-13T13:04:41.248704
MEAN_MOTION    = 13.84834800
ECCENTRICITY   = .00034171
INCLINATION    = 81.3054
RA_OF_ASC_NODE = 51.6961
ARG_OF_PERICENTER = 51.7716
MEAN_ANOMALY   = 308.3748

EPHEMERIS_TYPE = 0
CLASSIFICATION_TYPE = U
NORAD_CAT_ID   = 65992
ELEMENT_SET_NO = 999
REV_AT_EPOCH   = 396
BSTAR          = .36682399E-3
MEAN_MOTION_DOT = .425E-5
MEAN_MOTION_DDOT = 0

CCSDS_OMM_VERS = 2.0
CREATION_DATE  = 
ORIGINATOR     = 

OBJECT_NAME    = SDA_1683
OBJECT_ID      = 2025-230V
CENTER_NAME    = EARTH
REF_FRAME      = TEME
TIME_SYSTEM    = UTC
MEAN_ELEMENT_THEORY = SGP/SGP4

EPOCH          = 2025-11-13T13:02:17.950848
MEAN_MOTION    = 13.84916197
ECCENTRICITY   = .00037613
INCLINATION    = 81.3044
RA_OF_ASC_NODE = 51.6908
ARG_OF_PERICENTER = 54.2488
MEAN_ANOMALY   = 305.9019

EPHEMERIS_TYPE = 0
CLASSIFICATION_TYPE = U
NORAD_CAT_ID   = 65993
ELEMENT_SET_NO = 999
REV_AT_EPOCH   = 396
BSTAR          = .38912609E-3
MEAN_MOTION_DOT = .451E-5
MEAN_MOTION_DDOT = 0

CCSDS_OMM_VERS = 2.0
CREATION_DATE  = 
ORIGINATOR     = 

OBJECT_NAME    = SDA_1684
OBJECT_ID      = 2025-230W
CENTER_NAME    = EARTH
REF_FRAME      = TEME
TIME_SYSTEM    = UTC
MEAN_ELEMENT_THEORY = SGP/SGP4

EPOCH          = 2025-11-13T13:06:35.473824
MEAN_MOTION    = 13.84770723
ECCENTRICITY   = .00035107
INCLINATION    = 81.3027
RA_OF_ASC_NODE = 51.6899
ARG_OF_PERICENTER = 41.3686
MEAN_ANOMALY   = 318.7737

EPHEMERIS_TYPE = 0
CLASSIFICATION_TYPE = U
NORAD_CAT_ID   = 65994
ELEMENT_SET_NO = 999
REV_AT_EPOCH   = 396
BSTAR          = .35196532E-3
MEAN_MOTION_DOT = .408E-5
MEAN_MOTION_DDOT = 0

